CUTE-1 (CO-55)          
1 27844U 03031E   26186.02060450  .00000393  00000+0  18869-3 0  9991
2 27844  98.6737 194.3551 0010529 129.0136 231.1982 14.24347366194217
CUBESAT XI-IV (CO-57)   
1 27848U 03031J   26185.94773638  .00000336  00000+0  16664-3 0  9992
2 27848  98.6769 193.9817 0010102 146.4963 213.6856 14.23630898193908
CUBESAT XI-V            
1 28895U 05043F   26185.38895324  .00001770  00000+0  28553-3 0  9998
2 28895  98.3005 341.3738 0014782 147.1004 213.1126 14.72680865104285
CUTE-1.7+APD II (CO-65) 
1 32785U 08021C   26186.21255739  .00008182  00000+0  51223-3 0  9997
2 32785  97.8292 168.0085 0007802 339.8898  20.2022 15.09637906987915
CANX-2                  
1 32790U 08021H   26185.89923995  .00006693  00000+0  46613-3 0  9994
2 32790  97.8643 166.0228 0009868 353.0053   7.1034 15.05751261987478
SEEDS II (CO-66)        
1 32791U 08021J   26185.95469630  .00032385  00000+0  10027-2 0  9999
2 32791  97.7525 184.7084 0001813 182.4533 177.6700 15.33399456990015
SWISSCUBE               
1 35932U 09051B   26185.47808840  .00001528  00000+0  31098-3 0  9997
2 35932  98.4021  93.6669 0007217 148.5860 211.5774 14.62517748891680
BEESAT-1                
1 35933U 09051C   26185.70190184  .00001172  00000+0  24485-3 0  9996
2 35933  98.3947  93.4931 0005441 158.6227 201.5202 14.61750705891746
ITUPSAT1                
1 35935U 09051E   26185.70814032  .00001186  00000+0  25471-3 0  9994
2 35935  98.4031  92.6727 0007316 174.2685 185.8600 14.60469280891292
TISAT 1                 
1 36799U 10035E   26185.29489229  .00030047  00000+0  96087-3 0  9996
2 36799  98.0712 133.3699 0003634 140.6786 219.4718 15.32381693870328
AEROCUBE 4.5A           
1 38767U 12048K   26180.81601320  .02026816  74244-5  11805-2 0  9992
2 38767  64.6148 340.0554 0018867 267.4936  92.4076 16.17962819374686
STRAND-1                
1 39090U 13009E   26185.94874964  .00000402  00000+0  14932-3 0  9994
2 39090  98.3930   5.7465 0008799 169.9743 190.1621 14.37174843699617
BRITE-AUSTRIA           
1 39091U 13009F   26185.96931982  .00000252  00000+0  10033-3 0  9992
2 39091  98.4004   4.9656 0010116 180.2951 179.8232 14.36549756699606
NEE-01 PEGASO           
1 39151U 13018B   26186.21860113  .00004574  00000+0  43662-3 0  9990
2 39151  98.1251 330.9673 0013941 104.1848 256.0921 14.93758890713394
POPACS 2                
1 39269U 13055E   26185.82184007  .00027129 -75250-6  44971-3 0  9990
2 39269  80.9915 124.0034 0415832 137.1605 226.2823 14.91720341665849
POPACS 3                
1 39270U 13055F   26186.05141021  .00014826  00000+0  35090-3 0  9992
2 39270  80.9988 209.8134 0550084  15.6149 346.1267 14.56474235641157
ZACUBE-1 (TSHEPISOSAT)  
1 39417U 13066B   26185.93716864  .00005365  00000+0  41369-3 0  9990
2 39417  97.8032 148.3633 0043236 188.1764 171.8761 15.01294497683398
WNISAT-1                
1 39423U 13066H   26185.36754139  .00001519  00000+0  28336-3 0  9997
2 39423  97.7224 333.3061 0163106 177.3024 182.9095 14.58100925669239
TRITON-1                
1 39427U 13066M   26186.25871303  .00003392  00000+0  40745-3 0  9992
2 39427  97.8230  95.6537 0089822 174.3714 185.8531 14.81772501676766
GOMX-1                  
1 39430U 13066Q   26186.29830758  .00002048  00000+0  31144-3 0  9999
2 39430  97.6469  25.6175 0129131  19.9587 340.6605 14.69521745672579
CUBEBUG-2 (LO-74)       
1 39440U 13066AA  26186.28247977  .00007070  00000+0  64944-3 0  9998
2 39440  97.8914 135.3391 0056356 329.1937  30.5979 14.93923546679690
NEE-02 KRYSAOR          
1 39441U 13066AB  26185.77603257  .00004312  00000+0  47219-3 0  9991
2 39441  97.8891 124.8660 0066398  13.4769 346.8201 14.86707892678810
FUNCUBE-1 (AO-73)       
1 39444U 13066AE  26185.88720520  .00011803  00000+0  72371-3 0  9999
2 39444  97.8283 157.7053 0037405 141.4256 218.9657 15.09718097682330
UWE-3                   
1 39446U 13066AG  26185.86074106  .00005022  00000+0  43020-3 0  9996
2 39446  97.8705 142.0564 0047342 260.6060  98.9807 14.97156601680225
BRITE-CA1 (TORONTO)     
1 40020U 14033L   26185.63533524  .00001450  00000+0  22478-3 0  9995
2 40020  97.9761 314.2438 0077706 220.2855 139.2579 14.72709042644784
DUCHIFAT-1              
1 40021U 14033M   26185.71700957  .00213562  00000+0  18351-2 0  9994
2 40021  98.0425 247.3916 0000551 273.4953  86.6243 15.68680703658498
NANOSATC-BR1            
1 40024U 14033Q   26186.03967014  .00031872  00000+0  10283-2 0  9990
2 40024  98.0709 220.0161 0005239 120.9121 239.2635 15.32077751656715
QB50P1                  
1 40025U 14033R   26185.74556599  .00013753  00000+0  66809-3 0  9994
2 40025  98.0964 198.1255 0009636 155.8537 204.3149 15.18544565655696
QB50P2                  
1 40032U 14033Y   26185.92988667  .00012504  00000+0  66464-3 0  9997
2 40032  98.0760 183.9176 0009250 112.0919 248.1295 15.15408742655357
PERSEUS-M2              
1 40037U 14033AD  26186.32869556  .00002426  00000+0  22399-3 0  9993
2 40037  97.9969 137.2401 0010654 236.4056 123.6148 14.95565006653498
